[{"OBJECT_NAME":"STARLINK-5508","OBJECT_ID":"2023-021M","EPOCH":"2026-03-09T16:51:28.909152","MEAN_MOTION":14.98333687,"ECCENTRICITY":0.00033931,"INCLINATION":70.0003,"RA_OF_ASC_NODE":184.4106,"ARG_OF_PERICENTER":268.7257,"MEAN_ANOMALY":91.3513,"EPHEMERIS_TYPE":0,"CLASSIFICATION_TYPE":"U","NORAD_CAT_ID":55639,"ELEMENT_SET_NO":999,"REV_AT_EPOCH":16879,"BSTAR":0.00042167772,"MEAN_MOTION_DOT":4.942e-5,"MEAN_MOTION_DDOT":0},{"OBJECT_NAME":"ICEYE-X51","OBJECT_ID":"2025-052AZ","EPOCH":"2026-03-09T22:06:54.407520","MEAN_MOTION":15.00892494,"ECCENTRICITY":0.00020982,"INCLINATION":97.7349,"RA_OF_ASC_NODE":324.3635,"ARG_OF_PERICENTER":65.1031,"MEAN_ANOMALY":295.041,"EPHEMERIS_TYPE":0,"CLASSIFICATION_TYPE":"U","NORAD_CAT_ID":63257,"ELEMENT_SET_NO":999,"REV_AT_EPOCH":5391,"BSTAR":0.00046355347,"MEAN_MOTION_DOT":5.842e-5,"MEAN_MOTION_DDOT":0}]
